[{"OBJECT_NAME":"FLOCK 4G-15","OBJECT_ID":"2025-009BX","EPOCH":"2026-03-09T17:13:37.807680","MEAN_MOTION":15.27266411,"ECCENTRICITY":0.00036988,"INCLINATION":97.4054,"RA_OF_ASC_NODE":151.1927,"ARG_OF_PERICENTER":316.8208,"MEAN_ANOMALY":43.274,"EPHEMERIS_TYPE":0,"CLASSIFICATION_TYPE":"U","NORAD_CAT_ID":62678,"ELEMENT_SET_NO":999,"REV_AT_EPOCH":12135,"BSTAR":0.00047574812,"MEAN_MOTION_DOT":0.00012647,"MEAN_MOTION_DDOT":0},{"OBJECT_NAME":"STARLINK-35755","OBJECT_ID":"2025-303A","EPOCH":"2026-03-09T02:09:41.884704","MEAN_MOTION":15.27594287,"ECCENTRICITY":0.00017003,"INCLINATION":42.9997,"RA_OF_ASC_NODE":314.0948,"ARG_OF_PERICENTER":332.6659,"MEAN_ANOMALY":27.4103,"EPHEMERIS_TYPE":0,"CLASSIFICATION_TYPE":"U","NORAD_CAT_ID":67163,"ELEMENT_SET_NO":999,"REV_AT_EPOCH":1264,"BSTAR":0.001451006,"MEAN_MOTION_DOT":0.00039901,"MEAN_MOTION_DDOT":0}]
